DRAGONFLY               
1 65729U 98067XH  26020.98509879  .01003264  47354-3  23710-2 0  9991
2 65729  51.6162 291.9962 0007808 156.6249 203.5115 15.96188389 19371
1998-067XK              
1 65731U 98067XK  26020.49287168  .00209859  00000+0  13191-2 0  9996
2 65731  51.6270 299.3056 0004571 116.2117 243.9353 15.75542444 19230
RSP-03                  
1 65732U 98067XL  26020.82500643  .00542583  00000+0  22928-2 0  9992
2 65732  51.6235 295.4848 0005600 133.0389 227.1084 15.83396807 19324
GHS-01                  
1 65733U 98067XM  26020.18669718  .04911934  11855-4  21630-2 0  9999
2 65733  51.6157 293.3797 0006739 190.3013 169.7869 16.21603071 19297
YOTSUBA-KULOVER         
1 65941U 98067XN  26020.02445818  .00127352  00000+0  12200-2 0  9993
2 65941  51.6285 306.6936 0004326 132.7917 227.3443 15.65739151 15848
BOTAN                   
1 65942U 98067XP  26020.79042042  .00388238  00000+0  25471-2 0  9996
2 65942  51.6250 300.5428 0004421 137.0348 223.0997 15.74034708 15991
E-KAGAKU-1              
1 65943U 98067XQ  26020.98167905  .00135496  00000+0  12768-2 0  9995
2 65943  51.6295 301.8431 0003001 142.8515 217.2689 15.66123068 15994
HRC MONOBLOCK CAMERA    
1 66052U 98067XR  26020.96642020  .00057027  00000+0  76909-3 0  9992
2 66052  51.6305 305.4859 0000902  28.8238 331.2804 15.57242246 14944
HTV-X1                  
1 66174U 25241A   26020.88454504  .00023329  00000+0  42269-3 0  9990
2 66174  51.6331 308.6863 0007748  41.1873 318.9699 15.49488068   513
SZ-21 MODULE            
1 66515U 25246C   26020.69151602  .00059538  00000+0  59050-3 0  9993
2 66515  41.4760 138.0169 0002827 211.7700 148.2971 15.64884876 10541
SHENZHOU-22             
1 66645U 25272A   26020.70276378  .00038992  00000+0  45544-3 0  9990
2 66645  41.4671 139.8756 0010813 324.6098  35.4022 15.60783355267640
SOYUZ-MS 28             
1 66664U 25275A   26020.88454504  .00023329  00000+0  42269-3 0  9991
2 66664  51.6331 308.6863 0007748  41.1873 318.9699 15.49488068  1282
